2000 WW12,e,2.4995,162.0534,259.5066,44.82561,0.0032841,0.12511203,7.4629,07/23.0/2010,2000,H 6.2,0.15
2000 WT169,e,1.7455,110.4694,235.0751,44.94209,0.0032713,0.01331544,92.6843,07/23.0/2010,2000,H 6.1,0.15
2000 WL183,e,4.2999,93.6585,201.9842,43.61780,0.0034214,0.06730329,133.8725,07/23.0/2010,2000,H 7.6,0.15
2000 WM183,e,7.4404,81.2368,143.6215,45.02536,0.0032623,0.11576508,215.2045,07/23.0/2010,2000,H 7.3,0.15
2000 WN183,e,4.0395,96.6984,65.1309,44.78033,0.0032891,0.11168272,286.5535,07/23.0/2010,2000,H 7.0,0.15
2000 WO183,e,2.4444,120.4175,266.9840,43.87325,0.0033916,0.06294417,44.6560,07/23.0/2010,2000,H 7.7,0.15
2000 YV1,e,0.7954,189.8685,16.6258,43.95038,0.0033827,0.03250883,221.7227,07/23.0/2010,2000,H 7.1,0.15
2000 YX1,e,4.5429,65.1025,332.8400,45.70153,0.0031901,0.07579976,26.0977,07/23.0/2010,2000,H 6.9,0.15
2000 YY1,e,7.8585,209.6311,292.5013,63.43725,0.0019507,0.52881684,336.8926,07/23.0/2010,2000,H 7.1,0.15
2000 YZ1,e,5.5365,95.7295,31.2565,44.52857,0.0033170,0.12548540,313.4743,07/23.0/2010,2000,H 7.9,0.15
2000 YA2,e,1.8661,146.8470,171.8479,44.24670,0.0033487,0.06539700,99.5165,07/23.0/2010,2000,H 6.9,0.15
2000 YB2,e,3.8252,135.4784,207.7151,38.81891,0.0040751,0.03210340,84.2045,07/23.0/2010,2000,H 6.9,0.15
2000 YE2,e,3.8255,224.6336,234.6745,47.39283,0.0030209,0.19302734,341.6178,07/23.0/2010,2000,H 8.3,0.15
2000 YF2,e,2.0068,81.2825,95.4418,45.66054,0.0031944,0.07181727,258.8352,07/23.0/2010,2000,H 7.0,0.15
2001 DB106,e,3.7934,130.1001,230.3385,42.94094,0.0035027,0.03837655,169.3876,07/23.0/2010,2000,H 6.4,0.15
2001 DD106,e,1.8245,123.5923,0.0538,43.84378,0.0033950,0.09161096,42.8602,07/23.0/2010,2000,H 6.9,0.15
2001 DV108,e,4.6776,338.4740,254.7261,45.78407,0.0031815,0.26280200,319.7191,07/23.0/2010,2000,H 8.2,0.15
2001 ES24,e,4.0391,111.6654,267.0544,44.17004,0.0033575,0.06735451,147.3330,07/23.0/2010,2000,H 7.9,0.15
2001 FU172,e,24.7676,32.4847,134.2251,39.29595,0.0040011,0.26675545,36.7317,07/23.0/2010,2000,H 8.3,0.15
2001 FK185,e,1.1725,56.7473,175.0242,43.15456,0.0034767,0.03823120,341.8064,07/23.0/2010,2000,H 7.3,0.15
2001 FL185,e,3.5600,75.5239,67.3718,43.93751,0.0033842,0.07163064,26.2198,07/23.0/2010,2000,H 7.1,0.15
2001 FN185,e,21.7716,203.3323,12.6527,42.41371,0.0035682,0.07055930,356.7107,07/23.0/2010,2000,H 7.3,0.15
2001 FO185,e,10.6566,205.7911,333.8609,46.33102,0.0031253,0.11599198,26.2837,07/23.0/2010,2000,H 6.8,0.15
2001 FQ185,e,3.2422,135.3104,68.8365,47.50906,0.0030098,0.22636057,0.6437,07/23.0/2010,2000,H 7.2,0.15
2001 FS185,e,4.6009,97.3798,109.6199,43.25067,0.0034651,0.04216644,0.0895,04/21.0/2001,2000,H 7.7,0.15
2001 FT185,e,19.5485,16.8475,145.0083,47.02118,0.0030568,0.10188066,41.6342,07/23.0/2010,2000,H 7.8,0.15
2001 FU185,e,24.5523,192.2993,351.8767,39.36077,0.0039912,0.11443351,0.1036,04/21.0/2001,2000,H 9.0,0.15
2001 FV185,e,24.2236,13.1022,171.6469,39.37937,0.0039884,0.12537472,0.1031,04/21.0/2001,2000,H 7.7,0.15
2001 FE193,e,2.8175,154.9741,337.7552,46.52657,0.0031057,0.12181344,51.5795,07/23.0/2010,2000,H 7.2,0.15
2001 FK193,e,3.5112,89.9336,50.9754,43.93295,0.0033847,0.06383071,70.5022,07/23.0/2010,2000,H 6.9,0.15
2001 FM194,e,28.7354,181.8148,44.5731,53.89163,0.0024913,0.36395260,348.1406,07/23.0/2010,2000,H 7.6,0.15
2001 HZ58,e,2.9371,88.6045,16.3258,42.65852,0.0035375,0.03679922,119.5325,07/23.0/2010,2000,H 6.3,0.15
2001 HA59,e,1.0137,149.4155,295.3101,43.62728,0.0034203,0.04854587,139.5197,07/23.0/2010,2000,H 6.5,0.15
2001 HY65,e,17.1708,188.1896,313.6771,43.02469,0.0034924,0.11741040,45.9943,07/23.0/2010,2000,H 6.4,0.15
2001 KF76,e,3.2176,50.9724,286.0341,44.42902,0.0033282,0.02725498,280.2303,07/23.0/2010,2000,H 7.2,0.15
2001 KG76,e,1.5496,96.0240,64.0320,51.51277,0.0026658,0.33863217,55.6096,07/23.0/2010,2000,H 6.2,0.15
2001 KH76,e,3.2442,261.6613,69.4234,46.25266,0.0031333,0.12624717,302.1109,07/23.0/2010,2000,H 6.8,0.15
2001 KL76,e,1.3283,255.3922,142.1330,44.52519,0.0033174,0.09831835,221.3563,07/23.0/2010,2000,H 6.6,0.15
2001 KT76,e,1.7094,184.5760,344.4917,45.03704,0.0032610,0.08511762,52.4724,07/23.0/2010,2000,H 7.0,0.15
2001 KW76,e,10.4669,61.8431,241.9309,46.10575,0.0031483,0.21863539,325.7300,07/23.0/2010,2000,H 7.3,0.15
2001 KY76,e,3.9682,90.0780,262.5767,39.46659,0.0039752,0.23861002,299.4640,07/23.0/2010,2000,H 6.1,0.15
2001 KA77,e,11.9256,239.1707,123.1493,47.49458,0.0030112,0.09578464,266.5447,07/23.0/2010,2000,H 5.0,0.15
2001 KB77,e,17.5352,223.0309,53.1015,39.60891,0.0039538,0.28386552,339.6616,07/23.0/2010,2000,H 7.2,0.15
2001 KD77,e,2.2499,139.2124,90.6975,39.61192,0.0039534,0.11426837,28.4908,07/23.0/2010,2000,H 5.8,0.15
2001 KE77,e,20.9966,240.3076,326.5254,45.50996,0.0032103,0.18382052,40.9373,07/23.0/2010,2000,H 7.2,0.15
2001 KG77,e,15.4820,250.4979,15.8117,61.92621,0.0020225,0.45178785,358.2788,07/23.0/2010,2000,H 8.1,0.15
2001 KO77,e,20.7358,245.6016,16.6577,43.95161,0.0033825,0.14680046,353.9679,07/23.0/2010,2000,H 7.6,0.15
2001 KQ77,e,15.6220,248.4937,64.7984,39.59124,0.0039564,0.15913756,317.9034,07/23.0/2010,2000,H 7.0,0.15
2001 OK108,e,1.9949,114.7597,137.7616,43.16858,0.0034750,0.03513198,60.5377,07/23.0/2010,2000,H 7.4,0.15
2001 OL108,e,2.6887,115.2653,190.1208,45.55745,0.0032053,0.10745857,0.1470,09/08.0/2001,2000,H 8.4,0.15
2001 OM108,e,12.2223,126.7222,357.3812,46.05371,0.0031536,0.03717763,183.2607,09/08.0/2001,2000,H 8.0,0.15
2001 ON108,e,1.1549,201.4344,104.7366,43.70417,0.0034113,0.00000000,0.1365,08/19.0/2001,2000,H 7.6,0.15
2001 OQ108,e,2.3243,131.3930,306.0152,45.45813,0.0032158,0.00953230,148.3482,07/23.0/2010,2000,H 6.5,0.15
2001 OZ108,e,2.0973,130.3076,70.7140,43.52958,0.0034318,0.05062548,109.9651,07/23.0/2010,2000,H 8.3,0.15
2001 OG109,e,0.5454,332.6932,11.7064,43.75538,0.0034053,0.01998547,334.4779,07/23.0/2010,2000,H 8.2,0.15
2001 OM109,e,3.5440,306.8178,292.3423,69.02689,0.0017186,0.49527496,30.5232,07/23.0/2010,2000,H 7.9,0.15
2001 PK47,e,8.7272,248.0319,166.0549,39.97663,0.0038994,0.06852802,329.7374,07/23.0/2010,2000,H 6.4,0.15
2001 QO297,e,1.1351,143.2788,307.4518,43.17529,0.0034742,0.03620337,272.4428,07/23.0/2010,2000,H 5.9,0.15
2001 QP297,e,1.4301,111.7549,167.3983,45.50059,0.0032113,0.12024760,70.3233,07/23.0/2010,2000,H 6.6,0.15
2001 QQ297,e,4.4130,80.6583,213.2093,44.67926,0.0033002,0.08893405,60.6638,07/23.0/2010,2000,H 6.7,0.15
2001 QR297,e,5.1334,148.0291,219.0611,44.68723,0.0032994,0.03211352,329.5898,07/23.0/2010,2000,H 6.4,0.15
2001 QX297,e,0.9098,279.4891,103.1063,44.42015,0.0033292,0.03208364,318.6874,07/23.0/2010,2000,H 6.6,0.15
2001 QY297,e,1.5456,108.7230,129.7826,44.07846,0.0033679,0.08276459,71.7825,07/23.0/2010,2000,H 5.7,0.15
2001 QZ297,e,1.8529,16.0996,263.0491,44.55756,0.0033138,0.06772026,36.7768,07/23.0/2010,2000,H 6.9,0.15
2001 QA298,e,23.6174,117.0657,227.2328,46.49107,0.0031092,0.19311526,347.8561,07/23.0/2010,2000,H 6.8,0.15
2001 QB298,e,1.7983,291.6060,4.5453,42.90262,0.0035073,0.10037782,34.7576,07/23.0/2010,2000,H 7.1,0.15
2001 QC298,e,30.5096,334.7135,4.1240,46.57863,0.0031004,0.12906846,9.0338,07/23.0/2010,2000,H 6.1,0.15
2001 QD298,e,5.0239,70.6874,202.9454,42.90102,0.0035075,0.05927480,52.8730,07/23.0/2010,2000,H 5.7,0.15
2001 QE298,e,3.6499,7.7670,9.8583,44.04560,0.0033717,0.16119601,348.6622,07/23.0/2010,2000,H 7.1,0.15
2001 QF298,e,22.3004,164.1497,43.5986,39.56370,0.0039606,0.10658073,143.9682,07/23.0/2010,2000,H 5.1,0.15
2001 QH298,e,6.7079,129.3967,172.0821,39.62670,0.0039511,0.11179058,54.4142,07/23.0/2010,2000,H 7.7,0.15
2001 QJ298,e,2.1466,162.7320,287.0181,44.35289,0.0033367,0.03791706,251.8485,07/23.0/2010,2000,H 6.4,0.15
2001 QQ322,e,3.9576,76.4803,344.5141,44.27268,0.0033458,0.05448231,299.9798,07/23.0/2010,2000,H 6.4,0.15
2001 QR322,e,1.3217,151.5674,166.1950,30.38828,0.0058836,0.03161411,56.1411,07/23.0/2010,2000,H 8.2,0.15
2001 QS322,e,0.2457,348.3705,0.3758,44.30819,0.0033418,0.04482404,10.4812,07/23.0/2010,2000,H 6.4,0.15
2001 QW322,e,4.8018,124.6722,86.8641,44.23308,0.0033503,0.02214138,103.1553,07/23.0/2010,2000,H 7.8,0.15
2001 QX322,e,28.5248,254.8829,66.0424,58.53824,0.0022006,0.39077238,26.0662,07/23.0/2010,2000,H 6.0,0.15
2001 QF331,e,2.7165,156.9773,190.9240,39.48005,0.0039732,0.11374721,0.0793,09/08.0/2001,2000,H 7.0,0.15
2001 RU143,e,6.4988,209.2251,20.2709,39.62015,0.0039521,0.14550360,143.7015,07/23.0/2010,2000,H 6.2,0.15
2001 RW143,e,2.9627,131.3654,233.6453,43.26410,0.0034635,0.03889172,19.1216,07/23.0/2010,2000,H 6.9,0.15
2001 RX143,e,19.2021,20.5513,240.9853,39.53700,0.0039646,0.29546244,90.6430,07/23.0/2010,2000,H 6.5,0.15
2001 RZ143,e,2.1178,8.2669,31.1664,44.29068,0.0033438,0.06837791,352.4376,07/23.0/2010,2000,H 6.4,0.15
2001 SD291,e,3.1642,161.9788,205.8090,45.80147,0.0031797,0.09129567,0.2608,10/18.0/2001,2000,H 8.2,0.15
2001 SE291,e,1.5839,106.6526,284.9163,45.69104,0.0031912,0.13726826,351.8791,07/23.0/2010,2000,H 7.2,0.15
2001 UN18,e,3.5987,22.9643,227.0285,44.47358,0.0033232,0.07181339,132.8448,07/23.0/2010,2000,H 6.6,0.15
2001 UP18,e,1.1721,105.0316,139.8596,47.99072,0.0029646,0.07222355,137.0458,07/23.0/2010,2000,H 5.9,0.15
2001 VN71,e,18.6536,70.4294,0.9108,39.53907,0.0039643,0.24819098,4.3380,07/23.0/2010,2000,H 9.1,0.15
2001 XZ255,e,2.6090,77.7922,283.4407,15.90599,0.0155368,0.03627893,146.3378,07/23.0/2010,2000,H11.1,0.15
2002 CS154,e,1.1775,86.8478,144.7267,42.96868,0.0034993,0.04619150,304.4515,07/23.0/2010,2000,H 7.2,0.15
2002 CT154,e,3.5442,159.5103,344.6587,46.58779,0.0030995,0.10882325,26.1882,07/23.0/2010,2000,H 7.2,0.15
2002 CU154,e,3.3534,108.9260,37.3454,43.57447,0.0034265,0.05561831,1.4321,07/23.0/2010,2000,H 7.1,0.15
2002 CY154,e,0.9751,120.7991,226.3209,44.11040,0.0033643,0.07939999,187.9528,07/23.0/2010,2000,H 6.5,0.15
2002 CZ154,e,10.0935,152.9715,25.9021,43.27093,0.0034627,0.05596355,359.8080,07/23.0/2010,2000,H 7.4,0.15
2002 CW224,e,5.6621,1.6235,154.8795,39.37549,0.0039890,0.24102641,298.8659,07/23.0/2010,2000,H 6.9,0.15
2002 CX224,e,16.8356,42.2272,133.9478,46.26331,0.0031322,0.13111532,263.1692,07/23.0/2010,2000,H 6.0,0.15
